STARLINK-2386
1 27805C 21018U   21325.14377391  .00003540  00000-0  23727-3 0  3253
2 27805  53.0551  77.5717 0001126  80.2124 218.8147 15.06385977    19
